IRIDIUM 159             
1 43578U 18061K   24191.19530553  .00000093  00000+0  26144-4 0  9993
2 43578  86.3982 352.5804 0001921  90.5626 269.5790 14.34218058311901
IRIDIUM 180             
1 43922U 19002A   24190.91572824  .00000158  00000+0  49183-4 0  9998
2 43922  86.3968 289.5770 0002145  97.7399 262.4040 14.34218431287473
IRIDIUM 176             
1 43923U 19002B   24190.79957360  .00001528  00000+0  23846-3 0  9996
2 43923  86.6097 289.6459 0002149  92.3318 267.8145 14.72244171295028
IRIDIUM 168             
1 43924U 19002C   24190.76984995  .00000114  00000+0  33619-4 0  9998
2 43924  86.3971 289.6951 0002170  92.6705 267.4739 14.34216610287437
IRIDIUM 173             
1 43925U 19002D   24190.82693198  .00000257  00000+0  84536-4 0  9990
2 43925  86.3968 289.5893 0002082  94.0889 266.0545 14.34217603287421
IRIDIUM 169             
1 43926U 19002E   24191.10499465  .00000507  00000+0  15908-3 0  9998
2 43926  86.4241 321.1010 0003551 127.4645 232.6876 14.38629019288423
IRIDIUM 172             
1 43927U 19002F   24190.82059002  .00000193  00000+0  61994-4 0  9994
2 43927  86.3969 289.5980 0002133  93.7607 266.3832 14.34217685287435
IRIDIUM 175             
1 43928U 19002G   24191.20173167  .00001246  00000+0  19368-3 0  9994
2 43928  86.1500 261.3739 0002258 100.8482 259.2989 14.72237172295072
